{
"type": "FeatureCollection",
"name": "trail",
"crs": { "type": "name", "properties": { "name": "urn:ogc:def:crs:OGC:1.3:CRS84" } },
"features": [
{"type":"Feature","properties":{"id":null,"Name":"Placemark 1","descriptio":null,"timestamp":"2026-09-17T11:45:01","begin":null,"end":null,"altitudeMo":null,"tessellate":-1,"extrude":0,"visibility":-1,"drawOrder":null,"icon":null,"Descript_1":null,"pdfmaps_ph":null,"Issue Type":null,"Severity":null,"type":null,"description":"Field observation point.","photo":""},"geometry":{"type":"Point","coordinates":[-120.090047054731997,34.531304171913902,0.0]}},
{"type":"Feature","properties":{"id":null,"Name":"Placemark 4","descriptio":null,"timestamp":"2026-09-17T12:43:01","begin":null,"end":null,"altitudeMo":null,"tessellate":-1,"extrude":0,"visibility":-1,"drawOrder":null,"icon":null,"Descript_1":null,"pdfmaps_ph":null,"Issue Type":"Erosion","Severity":"Minor","type":"Erosion — Minor","description":"Light, mostly stable erosion off the clear pathway.","photo":""},"geometry":{"type":"Point","coordinates":[-120.067446878631003,34.5252830925428,618.481081482740024]}},
{"type":"Feature","properties":{"id":null,"Name":"Placemark 5","descriptio":null,"timestamp":"2026-09-17T12:43:59","begin":null,"end":null,"altitudeMo":null,"tessellate":-1,"extrude":0,"visibility":-1,"drawOrder":null,"icon":null,"Descript_1":null,"pdfmaps_ph":null,"Issue Type":"Downed Tree","Severity":"Minor","type":"Downed Tree — Minor","description":"Small tree or branches fallen into or beside the trail.","photo":""},"geometry":{"type":"Point","coordinates":[-120.067216003362006,34.525580339702799,615.473837780366011]}},
{"type":"Feature","properties":{"id":null,"Name":"Placemark 8","descriptio":null,"timestamp":"2026-09-17T12:47:48","begin":null,"end":null,"altitudeMo":null,"tessellate":-1,"extrude":0,"visibility":-1,"drawOrder":null,"icon":null,"Descript_1":null,"pdfmaps_ph":null,"Issue Type":"Downed Tree","Severity":"Minor","type":"Downed Tree — Minor","description":"Small tree or branches fallen into or beside the trail.","photo":""},"geometry":{"type":"Point","coordinates":[-120.065856430184994,34.531312877015999,673.801615937038946]}},
{"type":"Feature","properties":{"id":null,"Name":"Placemark 10","descriptio":null,"timestamp":"2026-09-17T12:50:44","begin":null,"end":null,"altitudeMo":null,"tessellate":-1,"extrude":0,"visibility":-1,"drawOrder":null,"icon":null,"Descript_1":null,"pdfmaps_ph":null,"Issue Type":"Erosion","Severity":"Minor","type":"Erosion — Minor","description":"Light, mostly stable erosion off the clear pathway.","photo":""},"geometry":{"type":"Point","coordinates":[-120.063085587426997,34.532084276533503,0.0]}},
{"type":"Feature","properties":{"id":null,"Name":"Placemark 12","descriptio":null,"timestamp":"2026-09-17T12:55:41","begin":null,"end":null,"altitudeMo":null,"tessellate":-1,"extrude":0,"visibility":-1,"drawOrder":null,"icon":null,"Descript_1":null,"pdfmaps_ph":null,"Issue Type":"Downed Tree","Severity":"Minor","type":"Downed Tree — Minor","description":"Small tree or branches fallen into or beside the trail.","photo":""},"geometry":{"type":"Point","coordinates":[-120.055482629859,34.534221212772799,739.625438124927996]}},
{"type":"Feature","properties":{"id":null,"Name":"Placemark 14","descriptio":null,"timestamp":"2026-09-17T13:07:11","begin":null,"end":null,"altitudeMo":null,"tessellate":-1,"extrude":0,"visibility":-1,"drawOrder":null,"icon":null,"Descript_1":null,"pdfmaps_ph":null,"Issue Type":"Erosion","Severity":"Moderate","type":"Erosion — Moderate","description":"Larger, more unstable rock erosion that may affect the trail.","photo":""},"geometry":{"type":"Point","coordinates":[-120.034262680279994,34.531075044231898,0.0]}},
{"type":"Feature","properties":{"id":null,"Name":"Placemark 17","descriptio":null,"timestamp":"2026-09-17T13:22:18","begin":null,"end":null,"altitudeMo":null,"tessellate":-1,"extrude":0,"visibility":-1,"drawOrder":null,"icon":null,"Descript_1":null,"pdfmaps_ph":null,"Issue Type":"Erosion","Severity":"Moderate","type":"Erosion — Moderate","description":"Larger, more unstable rock erosion that may affect the trail.","photo":""},"geometry":{"type":"Point","coordinates":[-120.009041669148999,34.528567132176498,1033.53056600397008]}},
{"type":"Feature","properties":{"id":null,"Name":"Placemark 18","descriptio":null,"timestamp":"2026-09-17T13:23:55","begin":null,"end":null,"altitudeMo":null,"tessellate":-1,"extrude":0,"visibility":-1,"drawOrder":null,"icon":null,"Descript_1":"Large rocks on the brink of falling into the trail. Some cacti and vegetation growing in the eroded rock, with much vegetation at the top.","pdfmaps_ph":null,"Issue Type":"Erosion","Severity":"Severe","type":"Erosion — Severe","description":"Heavy and unstable erosion likely to fall and cause damage.","photo":""},"geometry":{"type":"Point","coordinates":[-120.006051871305004,34.527947067058001,1079.531418833599901]}},
{"type":"Feature","properties":{"id":null,"Name":"Placemark 19","descriptio":null,"timestamp":"2026-09-17T13:43:41","begin":null,"end":null,"altitudeMo":null,"tessellate":-1,"extrude":0,"visibility":-1,"drawOrder":null,"icon":null,"Descript_1":null,"pdfmaps_ph":null,"Issue Type":"Erosion","Severity":"Minor","type":"Erosion — Minor","description":"Light, mostly stable erosion off the clear pathway.","photo":""},"geometry":{"type":"Point","coordinates":[-120.036242350695005,34.530284654343099,921.774525194202056]}},
{"type":"Feature","properties":{"id":null,"Name":"Placemark 20","descriptio":null,"timestamp":"2026-09-17T13:53:31","begin":null,"end":null,"altitudeMo":null,"tessellate":-1,"extrude":0,"visibility":-1,"drawOrder":null,"icon":null,"Descript_1":null,"pdfmaps_ph":null,"Issue Type":"Erosion","Severity":"Moderate","type":"Erosion — Moderate","description":"Larger, more unstable rock erosion that may affect the trail.","photo":""},"geometry":{"type":"Point","coordinates":[-120.057356668891003,34.535412755957204,730.684822355245046]}},
{"type":"Feature","properties":{"id":null,"Name":"Placemark 21","descriptio":null,"timestamp":"2026-09-17T14:00:02","begin":null,"end":null,"altitudeMo":null,"tessellate":-1,"extrude":0,"visibility":-1,"drawOrder":null,"icon":null,"Descript_1":"Minor erosion, however trees growing right above erosion could be in danger of falling into the trail.","pdfmaps_ph":null,"Issue Type":"Erosion","Severity":"Minor","type":"Erosion — Minor","description":"Light, mostly stable erosion off the clear pathway.","photo":""},"geometry":{"type":"Point","coordinates":[-120.066244851820997,34.528990572551301,645.942825931163952]}},
{"type":"Feature","properties":{"id":null,"Name":"Placemark 22","descriptio":null,"timestamp":"2026-09-17T14:08:29","begin":null,"end":null,"altitudeMo":null,"tessellate":-1,"extrude":0,"visibility":-1,"drawOrder":null,"icon":null,"Descript_1":"Downed tree off the side of the trail, minor/small","pdfmaps_ph":null,"Issue Type":"Downed Tree","Severity":"Minor","type":"Downed Tree — Minor","description":"Small tree or branches fallen into or beside the trail.","photo":""},"geometry":{"type":"Point","coordinates":[-120.073959878695007,34.523465029229797,0.0]}},
{"type":"Feature","properties":{"id":null,"Name":"Placemark 23","descriptio":null,"timestamp":"2026-09-17T14:10:00","begin":null,"end":null,"altitudeMo":null,"tessellate":-1,"extrude":0,"visibility":-1,"drawOrder":null,"icon":null,"Descript_1":"Erosion moderate, trees at risk of falling into trail","pdfmaps_ph":null,"Issue Type":"Erosion","Severity":"Moderate","type":"Erosion — Moderate","description":"Larger, more unstable rock erosion that may affect the trail.","photo":"IMG_2536.JPG\n"},"geometry":{"type":"Point","coordinates":[-120.074987203437999,34.522759121932197,537.411020353325966]}},
{"type":"Feature","properties":{"id":null,"Name":"Placemark 24","descriptio":null,"timestamp":"2026-09-17T14:15:25","begin":null,"end":null,"altitudeMo":null,"tessellate":-1,"extrude":0,"visibility":-1,"drawOrder":null,"icon":null,"Descript_1":"Moderately severe erosion with trees growing on the edge and signs of past crumbing on the ground","pdfmaps_ph":null,"Issue Type":"Erosion","Severity":"Severe","type":"Erosion — Severe","description":"Heavy and unstable erosion likely to fall and cause damage.","photo":""},"geometry":{"type":"Point","coordinates":[-120.072156107601998,34.515360908381801,383.328597066119983]}},
{"type":"Feature","properties":{"id":null,"Name":"Placemark 25","descriptio":null,"timestamp":"2026-09-17T14:18:22","begin":null,"end":null,"altitudeMo":null,"tessellate":-1,"extrude":0,"visibility":-1,"drawOrder":null,"icon":null,"Descript_1":"Moderately severe erosion with trees and vegetation fallen on the ground, part of the trail is eroded as well","pdfmaps_ph":null,"Issue Type":"Erosion","Severity":"Severe","type":"Erosion — Severe","description":"Heavy and unstable erosion likely to fall and cause damage.","photo":""},"geometry":{"type":"Point","coordinates":[-120.074157225142002,34.5169502429953,0.0]}},
{"type":"Feature","properties":{"id":null,"Name":"Placemark 26","descriptio":null,"timestamp":"2026-09-17T14:23:44","begin":null,"end":null,"altitudeMo":null,"tessellate":-1,"extrude":0,"visibility":-1,"drawOrder":null,"icon":null,"Descript_1":null,"pdfmaps_ph":null,"Issue Type":"Erosion","Severity":"Moderate","type":"Erosion — Moderate","description":"Larger, more unstable rock erosion that may affect the trail.","photo":""},"geometry":{"type":"Point","coordinates":[-120.074566408197001,34.513854590894702,316.205953515193016]}}
]
}
