{
"type": "FeatureCollection",
"name": "vegetation",
"crs": { "type": "name", "properties": { "name": "urn:ogc:def:crs:OGC:1.3:CRS84" } },
"features": [
{"type":"Feature","properties":{"id":null,"Name":"Placemark 2","descriptio":null,"timestamp":"2026/09/17 12:34:19.000","begin":null,"end":null,"altitudeMo":null,"tessellate":-1,"extrude":0,"visibility":-1,"drawOrder":null,"icon":null,"Descript_1":null,"pdfmaps_ph":null,"Vegetation":"Oak Woodland"},"geometry":{"type":"Point","coordinates":[-120.074645821670998,34.523016029451497,539.132748009208967]}},
{"type":"Feature","properties":{"id":null,"Name":"Placemark 3","descriptio":null,"timestamp":"2026/09/17 12:38:00.000","begin":null,"end":null,"altitudeMo":null,"tessellate":-1,"extrude":0,"visibility":-1,"drawOrder":null,"icon":null,"Descript_1":null,"pdfmaps_ph":null,"Vegetation":"Chaparral"},"geometry":{"type":"Point","coordinates":[-120.071312166552005,34.5246933789225,574.828838361151952]}},
{"type":"Feature","properties":{"id":null,"Name":"Placemark 3 (1)","descriptio":null,"timestamp":"2026/09/17 12:40:36.000","begin":null,"end":null,"altitudeMo":null,"tessellate":-1,"extrude":0,"visibility":-1,"drawOrder":null,"icon":null,"Descript_1":null,"pdfmaps_ph":null,"Vegetation":"Chaparral"},"geometry":{"type":"Point","coordinates":[-120.069370842869006,34.523991634530503,591.551469752017965]}},
{"type":"Feature","properties":{"id":null,"Name":"Placemark 6","descriptio":null,"timestamp":"2026/09/17 12:46:45.000","begin":null,"end":null,"altitudeMo":null,"tessellate":-1,"extrude":0,"visibility":-1,"drawOrder":null,"icon":null,"Descript_1":null,"pdfmaps_ph":null,"Vegetation":"Grassland"},"geometry":{"type":"Point","coordinates":[-120.065916282581,34.530569772711701,662.871265345056031]}},
{"type":"Feature","properties":{"id":null,"Name":"Placemark 9","descriptio":null,"timestamp":"2026/09/17 12:49:38.000","begin":null,"end":null,"altitudeMo":null,"tessellate":-1,"extrude":0,"visibility":-1,"drawOrder":null,"icon":null,"Descript_1":null,"pdfmaps_ph":null,"Vegetation":"Oak Woodland"},"geometry":{"type":"Point","coordinates":[-120.063675677608003,34.531992281179001,687.189450097725967]}},
{"type":"Feature","properties":{"id":null,"Name":"Placemark 11","descriptio":null,"timestamp":"2026/09/17 12:53:18.000","begin":null,"end":null,"altitudeMo":null,"tessellate":-1,"extrude":0,"visibility":-1,"drawOrder":null,"icon":null,"Descript_1":null,"pdfmaps_ph":null,"Vegetation":"Chaparral"},"geometry":{"type":"Point","coordinates":[-120.059125919151995,34.533450038850198,711.228255109140946]}},
{"type":"Feature","properties":{"id":null,"Name":"Placemark 13","descriptio":null,"timestamp":"2026/09/17 12:58:40.000","begin":null,"end":null,"altitudeMo":null,"tessellate":-1,"extrude":0,"visibility":-1,"drawOrder":null,"icon":null,"Descript_1":null,"pdfmaps_ph":null,"Vegetation":"Chaparral"},"geometry":{"type":"Point","coordinates":[-120.051479832289999,34.536556275221898,785.839971116924971]}},
{"type":"Feature","properties":{"id":null,"Name":"Placemark 13 (1)","descriptio":null,"timestamp":"2026/09/17 13:03:43.000","begin":null,"end":null,"altitudeMo":null,"tessellate":-1,"extrude":0,"visibility":-1,"drawOrder":null,"icon":null,"Descript_1":null,"pdfmaps_ph":null,"Vegetation":"Chaparral"},"geometry":{"type":"Point","coordinates":[-120.040500553602996,34.5333804873774,883.052139946768989]}},
{"type":"Feature","properties":{"id":null,"Name":"Placemark 15","descriptio":null,"timestamp":"2026/09/17 13:10:29.000","begin":null,"end":null,"altitudeMo":null,"tessellate":-1,"extrude":0,"visibility":-1,"drawOrder":null,"icon":null,"Descript_1":null,"pdfmaps_ph":null,"Vegetation":"Grassland"},"geometry":{"type":"Point","coordinates":[-120.031889780662993,34.534189120524097,987.219835122871018]}},
{"type":"Feature","properties":{"id":null,"Name":"Placemark 16","descriptio":null,"timestamp":"2026/09/17 13:13:11.000","begin":null,"end":null,"altitudeMo":null,"tessellate":-1,"extrude":0,"visibility":-1,"drawOrder":null,"icon":null,"Descript_1":null,"pdfmaps_ph":null,"Vegetation":"Chaparral"},"geometry":{"type":"Point","coordinates":[-120.026085593985997,34.533312725728798,1010.014399555259956]}},
{"type":"Feature","properties":{"id":null,"Name":"Placemark 24","descriptio":null,"timestamp":"2026/09/17 14:12:33.000","begin":null,"end":null,"altitudeMo":null,"tessellate":-1,"extrude":0,"visibility":-1,"drawOrder":null,"icon":null,"Descript_1":null,"pdfmaps_ph":null,"Vegetation":"Chaparral"},"geometry":{"type":"Point","coordinates":[-120.077753213243,34.519079673335497,468.126557148464997]}}
]
}
